{"type": "FeatureCollection", "features": [ {"type": "Feature", "properties": {"norad_id": 66569, "name": "STARLINK-35835", "group": "last-30-days", "lat": 14.717605238995166, "lon": -62.839698435545046, "alt_km": 413.260471833044, "timestamp": "2025-12-10T14:53:35.946773+00:00", "meta": {"OBJECT_NAME": "STARLINK-35835", "OBJECT_ID": "2025-268N", "EPOCH": "2025-12-10T06:00:02.000160", "MEAN_MOTION": 15.50625079, "ECCENTRICITY": 0.00016657, "INCLINATION": 43.0004, "RA_OF_ASC_NODE": 135.7006, "ARG_OF_PERICENTER": 266.4837, "MEAN_ANOMALY": 340.7611, "EPHEMERIS_TYPE": 0, "CLASSIFICATION_TYPE": "U", "NORAD_CAT_ID": 66569, "ELEMENT_SET_NO": 999, "REV_AT_EPOCH": 426, "BSTAR": -0.0022102462, "MEAN_MOTION_DOT": -0.0012812, "MEAN_MOTION_DDOT": 0}, "tle": {"line1": "1 66569U 25268N   25344.25002315 -.00128120  00000+0 -22102-2 0  9995", "line2": "2 66569  43.0004 135.7006 0001665 266.4837 340.7611 15.50625079  4265"}}, "geometry": {"type": "Point", "coordinates": [-62.839698435545046, 14.717605238995166]}}, {"type": "Feature", "properties": {"norad_id": 66570, "name": "STARLINK-35834", "group": "last-30-days", "lat": 13.461186147232766, "lon": -61.356792813629546, "alt_km": 413.31068861255153, "timestamp": "2025-12-10T14:53:35.946782+00:00", "meta": {"OBJECT_NAME": "STARLINK-35834", "OBJECT_ID": "2025-268P", "EPOCH": "2025-12-10T06:00:02.000160", "MEAN_MOTION": 15.50594671, "ECCENTRICITY": 0.00015427, "INCLINATION": 43.0006, "RA_OF_ASC_NODE": 135.695, "ARG_OF_PERICENTER": 263.7832, "MEAN_ANOMALY": 345.3875, "EPHEMERIS_TYPE": 0, "CLASSIFICATION_TYPE": "U", "NORAD_CAT_ID": 66570, "ELEMENT_SET_NO": 999, "REV_AT_EPOCH": 426, "BSTAR": -0.001297938, "MEAN_MOTION_DOT": -0.00075795, "MEAN_MOTION_DDOT": 0}, "tle": {"line1": "1 66570U 25268P   25344.25002315 -.00075795  00000+0 -12979-2 0  9997", "line2": "2 66570  43.0006 135.6950 0001542 263.7832 345.3875 15.50594671  4261"}}, "geometry": {"type": "Point", "coordinates": [-61.356792813629546, 13.461186147232766]}}, {"type": "Feature", "properties": {"norad_id": 66571, "name": "STARLINK-35836", "group": "last-30-days", "lat": 12.192565040268686, "lon": -59.884663496981716, "alt_km": 413.5586308616121, "timestamp": "2025-12-10T14:53:35.946790+00:00", "meta": {"OBJECT_NAME": "STARLINK-35836", "OBJECT_ID": "2025-268Q", "EPOCH": "2025-12-10T06:00:02.000160", "MEAN_MOTION": 15.50602067, "ECCENTRICITY": 0.00017185, "INCLINATION": 43.0006, "RA_OF_ASC_NODE": 135.6903, "ARG_OF_PERICENTER": 266.5314, "MEAN_ANOMALY": 344.5552, "EPHEMERIS_TYPE": 0, "CLASSIFICATION_TYPE": "U", "NORAD_CAT_ID": 66571, "ELEMENT_SET_NO": 999, "REV_AT_EPOCH": 426, "BSTAR": -0.0015028621, "MEAN_MOTION_DOT": -0.00087602, "MEAN_MOTION_DDOT": 0}, "tle": {"line1": "1 66571U 25268Q   25344.25002315 -.00087602  00000+0 -15029-2 0  9997", "line2": "2 66571  43.0006 135.6903 0001718 266.5314 344.5552 15.50602067  4263"}}, "geometry": {"type": "Point", "coordinates": [-59.884663496981716, 12.192565040268686]}}, {"type": "Feature", "properties": {"norad_id": 66572, "name": "STARLINK-35870", "group": "last-30-days", "lat": 10.915050058990644, "lon": -58.423848730173745, "alt_km": 413.800256367359, "timestamp": "2025-12-10T14:53:35.946800+00:00", "meta": {"OBJECT_NAME": "STARLINK-35870", "OBJECT_ID": "2025-268R", "EPOCH": "2025-12-10T06:00:02.000160", "MEAN_MOTION": 15.50587562, "ECCENTRICITY": 0.00016253, "INCLINATION": 43.0005, "RA_OF_ASC_NODE": 135.6871, "ARG_OF_PERICENTER": 268.096, "MEAN_ANOMALY": 344.9359, "EPHEMERIS_TYPE": 0, "CLASSIFICATION_TYPE": "U", "NORAD_CAT_ID": 66572, "ELEMENT_SET_NO": 999, "REV_AT_EPOCH": 426, "BSTAR": -0.0017519167, "MEAN_MOTION_DOT": -0.00101825, "MEAN_MOTION_DDOT": 0}, "tle": {"line1": "1 66572U 25268R   25344.25002315 -.00101825  00000+0 -17519-2 0  9998", "line2": "2 66572  43.0005 135.6871 0001625 268.0960 344.9359 15.50587562  4269"}}, "geometry": {"type": "Point", "coordinates": [-58.423848730173745, 10.915050058990644]}}, {"type": "Feature", "properties": {"norad_id": 66573, "name": "STARLINK-35650", "group": "last-30-days", "lat": 9.624807649046105, "lon": -56.97218749196541, "alt_km": 414.2101078237765, "timestamp": "2025-12-10T14:53:35.946809+00:00", "meta": {"OBJECT_NAME": "STARLINK-35650", "OBJECT_ID": "2025-268S", "EPOCH": "2025-12-10T06:00:02.000160", "MEAN_MOTION": 15.50640086, "ECCENTRICITY": 0.00022295, "INCLINATION": 43.0005, "RA_OF_ASC_NODE": 135.6809, "ARG_OF_PERICENTER": 276.1046, "MEAN_ANOMALY": 338.8133, "EPHEMERIS_TYPE": 0, "CLASSIFICATION_TYPE": "U", "NORAD_CAT_ID": 66573, "ELEMENT_SET_NO": 999, "REV_AT_EPOCH": 426, "BSTAR": -0.0025064835, "MEAN_MOTION_DOT": -0.00145024, "MEAN_MOTION_DDOT": 0}, "tle": {"line1": "1 66573U 25268S   25344.25002315 -.00145024  00000+0 -25065-2 0  9993", "line2": "2 66573  43.0005 135.6809 0002229 276.1046 338.8133 15.50640086  4260"}}, "geometry": {"type": "Point", "coordinates": [-56.97218749196541, 9.624807649046105]}}, {"type": "Feature", "properties": {"norad_id": 66574, "name": "STARLINK-35812", "group": "last-30-days", "lat": 8.348257013649983, "lon": -55.55232506607318, "alt_km": 414.0966145542616, "timestamp": "2025-12-10T14:53:35.946819+00:00", "meta": {"OBJECT_NAME": "STARLINK-35812", "OBJECT_ID": "2025-268T", "EPOCH": "2025-12-10T06:00:02.000160", "MEAN_MOTION": 15.5061418, "ECCENTRICITY": 0.00019801, "INCLINATION": 43.0005, "RA_OF_ASC_NODE": 135.6758, "ARG_OF_PERICENTER": 268.1742, "MEAN_ANOMALY": 348.6568, "EPHEMERIS_TYPE": 0, "CLASSIFICATION_TYPE": "U", "NORAD_CAT_ID": 66574, "ELEMENT_SET_NO": 999, "REV_AT_EPOCH": 426, "BSTAR": -0.0018419626, "MEAN_MOTION_DOT": -0.00107076, "MEAN_MOTION_DDOT": 0}, "tle": {"line1": "1 66574U 25268T   25344.25002315 -.00107076  00000+0 -18420-2 0  9996", "line2": "2 66574  43.0005 135.6758 0001980 268.1742 348.6568 15.50614180  4268"}}, "geometry": {"type": "Point", "coordinates": [-55.55232506607318, 8.348257013649983]}}, {"type": "Feature", "properties": {"norad_id": 66575, "name": "STARLINK-35810", "group": "last-30-days", "lat": 7.053136110391773, "lon": -54.12664066826053, "alt_km": 414.2744220908644, "timestamp": "2025-12-10T14:53:35.946830+00:00", "meta": {"OBJECT_NAME": "STARLINK-35810", "OBJECT_ID": "2025-268U", "EPOCH": "2025-12-10T06:00:02.000160", "MEAN_MOTION": 15.50609349, "ECCENTRICITY": 0.00018704, "INCLINATION": 43.0005, "RA_OF_ASC_NODE": 135.671, "ARG_OF_PERICENTER": 270.2986, "MEAN_ANOMALY": 348.4545, "EPHEMERIS_TYPE": 0, "CLASSIFICATION_TYPE": "U", "NORAD_CAT_ID": 66575, "ELEMENT_SET_NO": 999, "REV_AT_EPOCH": 426, "BSTAR": -0.0017583374, "MEAN_MOTION_DOT": -0.00102273, "MEAN_MOTION_DDOT": 0}, "tle": {"line1": "1 66575U 25268U   25344.25002315 -.00102273  00000+0 -17583-2 0  9990", "line2": "2 66575  43.0005 135.6710 0001870 270.2986 348.4545 15.50609349  4263"}}, "geometry": {"type": "Point", "coordinates": [-54.12664066826053, 7.053136110391773]}}, {"type": "Feature", "properties": {"norad_id": 66576, "name": "STARLINK-35814", "group": "last-30-days", "lat": 5.756639222032593, "lon": -52.71198116417506, "alt_km": 414.2423449710477, "timestamp": "2025-12-10T14:53:35.946839+00:00", "meta": {"OBJECT_NAME": "STARLINK-35814", "OBJECT_ID": "2025-268V", "EPOCH": "2025-12-10T06:00:02.000160", "MEAN_MOTION": 15.50546011, "ECCENTRICITY": 0.0001886, "INCLINATION": 43.0005, "RA_OF_ASC_NODE": 135.6663, "ARG_OF_PERICENTER": 263.2173, "MEAN_ANOMALY": 357.491, "EPHEMERIS_TYPE": 0, "CLASSIFICATION_TYPE": "U", "NORAD_CAT_ID": 66576, "ELEMENT_SET_NO": 999, "REV_AT_EPOCH": 426, "BSTAR": -0.00020241259, "MEAN_MOTION_DOT": -0.00012184, "MEAN_MOTION_DDOT": 0}, "tle": {"line1": "1 66576U 25268V   25344.25002315 -.00012184  00000+0 -20241-3 0  9998", "line2": "2 66576  43.0005 135.6663 0001886 263.2173 357.4910 15.50546011  4260"}}, "geometry": {"type": "Point", "coordinates": [-52.71198116417506, 5.756639222032593]}}, {"type": "Feature", "properties": {"norad_id": 66577, "name": "STARLINK-35815", "group": "last-30-days", "lat": 4.453935215350764, "lon": -51.30062752975224, "alt_km": 414.5806335548432, "timestamp": "2025-12-10T14:53:35.946847+00:00", "meta": {"OBJECT_NAME": "STARLINK-35815", "OBJECT_ID": "2025-268W", "EPOCH": "2025-12-10T06:00:02.000160", "MEAN_MOTION": 15.50584752, "ECCENTRICITY": 0.00017882, "INCLINATION": 43.0007, "RA_OF_ASC_NODE": 135.6619, "ARG_OF_PERICENTER": 268.994, "MEAN_ANOMALY": 353.6231, "EPHEMERIS_TYPE": 0, "CLASSIFICATION_TYPE": "U", "NORAD_CAT_ID": 66577, "ELEMENT_SET_NO": 999, "REV_AT_EPOCH": 426, "BSTAR": -0.0016705191, "MEAN_MOTION_DOT": -0.00097159, "MEAN_MOTION_DDOT": 0}, "tle": {"line1": "1 66577U 25268W   25344.25002315 -.00097159  00000+0 -16705-2 0  9993", "line2": "2 66577  43.0007 135.6619 0001788 268.9940 353.6231 15.50584752  4267"}}, "geometry": {"type": "Point", "coordinates": [-51.30062752975224, 4.453935215350764]}}, {"type": "Feature", "properties": {"norad_id": 66578, "name": "STARLINK-35743", "group": "last-30-days", "lat": 3.1487223651888265, "lon": -49.89513329898035, "alt_km": 414.6727210137087, "timestamp": "2025-12-10T14:53:35.946858+00:00", "meta": {"OBJECT_NAME": "STARLINK-35743", "OBJECT_ID": "2025-268X", "EPOCH": "2025-12-10T06:00:02.000160", "MEAN_MOTION": 15.50583183, "ECCENTRICITY": 0.00017579, "INCLINATION": 43.0006, "RA_OF_ASC_NODE": 135.6569, "ARG_OF_PERICENTER": 267.0586, "MEAN_ANOMALY": 357.4774, "EPHEMERIS_TYPE": 0, "CLASSIFICATION_TYPE": "U", "NORAD_CAT_ID": 66578, "ELEMENT_SET_NO": 999, "REV_AT_EPOCH": 426, "BSTAR": -0.0016041648, "MEAN_MOTION_DOT": -0.00093353, "MEAN_MOTION_DDOT": 0}, "tle": {"line1": "1 66578U 25268X   25344.25002315 -.00093353  00000+0 -16042-2 0  9990", "line2": "2 66578  43.0006 135.6569 0001757 267.0586 357.4774 15.50583183  4264"}}, "geometry": {"type": "Point", "coordinates": [-49.89513329898035, 3.1487223651888265]}}]}